{
  "signature": {
    "version": "1.0",
    "source": "NASA/JPL SBDB (Small-Body DataBase) Query API"
  },
  "fields": [
    "H",
    "G",
    "M1",
    "M2",
    "K1",
    "K2",
    "PC",
    "diameter",
    "extent",
    "albedo",
    "rot_per",
    "GM",
    "BV",
    "UB",
    "IR",
    "spec_B",
    "spec_T",
    "H_sigma",
    "diameter_sigma",
    "orbit_id",
    "epoch",
    "epoch_mjd",
    "epoch_cal",
    "equinox",
    "e",
    "a",
    "q",
    "i",
    "om",
    "w",
    "ma",
    "ad",
    "n",
    "tp",
    "tp_cal",
    "per",
    "per_y",
    "moid",
    "moid_ld",
    "moid_jup",
    "t_jup",
    "sigma_e",
    "sigma_a",
    "sigma_q",
    "sigma_i",
    "sigma_om",
    "sigma_w",
    "sigma_ma",
    "sigma_ad",
    "sigma_n",
    "sigma_tp",
    "sigma_per",
    "class",
    "producer",
    "data_arc",
    "first_obs",
    "last_obs",
    "n_obs_used",
    "n_del_obs_used",
    "n_dop_obs_used",
    "condition_code",
    "rms",
    "two_body",
    "A1",
    "A1_sigma",
    "A2",
    "A2_sigma",
    "A3",
    "A3_sigma",
    "DT",
    "DT_sigma",
    "spkid",
    "full_name",
    "pdes",
    "name",
    "prefix",
    "neo",
    "pha",
    "sats"
  ],
  "data": [
    [
      "3.34",
      "0.12",
      null,
      null,
      null,
      null,
      null,
      "939.4",
      "964.4 x 964.2 x 891.8",
      "0.090",
      "9.074170",
      "62.6284",
      "0.713",
      "0.426",
      null,
      "C",
      "G",
      null,
      "0.20",
      "JPL 48",
      "2460800.5",
      "60800",
      "2025-05-05.0",
      "J2000",
      "0.0794",
      "2.766",
      "2.546",
      "10.59",
      "80.25",
      "73.27",
      "188.70",
      "2.99",
      "0.2142",
      "2461600.03",
      "2027-07-13.5",
      "1.68e+03",
      "4.6",
      "1.58",
      "616",
      "2.09",
      "3.31",
      "4.8e-12",
      "1.0e-11",
      "1.9e-11",
      "4.6e-09",
      "6.2e-08",
      "6.6e-08",
      "6.3e-09",
      "1.1e-11",
      "1.2e-12",
      "2.9e-08",
      "9.3e-09",
      "MBA",
      "Davide Farnocchia",
      "9520",
      "1995-01-05",
      "2021-01-28",
      1075,
      60,
      0,
      "0",
      ".43153",
      null,
      null,
      null,
      null,
      null,
      null,
      null,
      null,
      null,
      20000001,
      "     1 Ceres (A801 AA)",
      "1",
      "Ceres",
      null,
      "N",
      "N",
      0
    ]
  ],
  "count": 1456636
}